[{"OBJECT_NAME":"IRIDIUM 145","OBJECT_ID":"2018-030E","EPOCH":"2026-03-09T23:33:38.409120","MEAN_MOTION":14.34213927,"ECCENTRICITY":0.00019039,"INCLINATION":86.4013,"RA_OF_ASC_NODE":331.8973,"ARG_OF_PERICENTER":94.1139,"MEAN_ANOMALY":266.0275,"EPHEMERIS_TYPE":0,"CLASSIFICATION_TYPE":"U","NORAD_CAT_ID":43253,"ELEMENT_SET_NO":999,"REV_AT_EPOCH":41590,"BSTAR":0.00011521042,"MEAN_MOTION_DOT":3.42e-6,"MEAN_MOTION_DDOT":0},{"OBJECT_NAME":"FENGYUN 1C DEB","OBJECT_ID":"1999-025YC","EPOCH":"2026-03-09T03:14:04.733664","MEAN_MOTION":14.24250917,"ECCENTRICITY":0.00557122,"INCLINATION":98.8395,"RA_OF_ASC_NODE":144.8247,"ARG_OF_PERICENTER":356.0528,"MEAN_ANOMALY":4.0203,"EPHEMERIS_TYPE":0,"CLASSIFICATION_TYPE":"U","NORAD_CAT_ID":30267,"ELEMENT_SET_NO":999,"REV_AT_EPOCH":98524,"BSTAR":0.0015339151,"MEAN_MOTION_DOT":3.552e-5,"MEAN_MOTION_DDOT":0}]
